SAUDISAT 1C (SO-50)     
1 27607U 02058C   26190.07047632  .00000528  00000+0  80074-4 0  9991
2 27607  64.5518  61.2774 0074702 258.4036 100.8678 14.83090961267701
SAUDISAT 2              
1 28371U 04025F   26189.94076335  .00000161  00000+0  47011-4 0  9999
2 28371  98.5515 190.4855 0023746 228.0122 131.9053 14.56696036168910
SAUDISAT 3              
1 31118U 07012B   26189.81530835  .00000167  00000+0  35144-4 0  9997
2 31118  98.1465 140.2314 0015169 153.9644 206.2329 14.71437984 30924
PISAT                   
1 41784U 16059B   26189.94075046  .00000644  00000+0  11700-3 0  9991
2 41784  97.8186 189.4594 0030131 133.9612 226.4087 14.69022214522939
FLYING LAPTOP           
1 42831U 17042G   26190.31481613  .00002194  00000+0  17440-3 0  9991
2 42831  97.4786 345.0110 0019875  51.1476 309.1518 15.01286913489777
SALSAT                  
1 46495U 20068K   26190.25177099  .00005482  00000+0  19084-3 0  9995
2 46495  97.8858 194.6644 0008593 215.0810 144.9864 15.30117525318739
